# From MPC 88332
270P/Gehrels,e,2.9223,223.0074,209.7781,6.661868,0.0573205,0.46831384,186.3142,05/03.0/2022,2000,g  8.0,4.0
# From MPC 92277
271P/van Houten-Lemmon,e,6.8722,9.3176,36.3857,7.039091,0.0527751,0.39510427,169.6160,05/03.0/2022,2000,g 11.0,4.0
# From MPEC 2022-C56
272P/NEAT,e,18.0746,109.4704,27.9009,4.459741,0.1046501,0.45463752,352.1444,05/03.0/2022,2000,g 16.0,2.0
# From MPC 82723
273P/Pons-Gambart,e,136.7643,320.3995,20.3259,31.92238,0.0054646,0.97422875,0.0000,12/20.0000/2012,2000,g 11.5,4.0
# From MPEC 2022-H30
274P/Tombaugh-Tenagra,e,15.8157,81.3395,38.4693,4.375576,0.1076840,0.43935023,2.6420,05/03.0/2022,2000,g 13.0,4.0
# From MPC 81862
275P/Hermann,e,21.2757,348.7576,174.0093,5.775495,0.0710101,0.71260859,243.3406,05/03.0/2022,2000,g 17.0,4.0
# From MPEC 2020-K19
276P/Vorobjov,e,14.8101,211.3647,199.5662,5.322150,0.0802737,0.26758399,283.2783,05/03.0/2022,2000,g 11.5,4.0
# From MPEC 2021-F20
277P/LINEAR,e,16.7768,276.3293,152.3176,3.853463,0.1302949,0.50592299,63.6862,05/03.0/2022,2000,g 15.1,4.0
# From MPEC 2021-S45
278P/McNaught,e,6.6959,15.3820,237.8156,3.688291,0.1391446,0.43603107,83.2575,05/03.0/2022,2000,g 14.0,4.0
# From MPC100285
279P/La Sagra,e,5.0525,346.2331,5.8448,3.572986,0.1459342,0.39869413,308.6929,05/03.0/2022,2000,g 14.0,4.0
# From MPC 89013
280P/Larsen,e,11.7740,131.3933,104.7571,4.530035,0.1022237,0.41735119,313.1066,05/03.0/2022,2000,g 12.5,4.0
# From MPEC 2021-W31
281P/MOSS,e,4.7189,87.1805,26.6686,4.874677,0.0915768,0.17235761,334.8429,05/03.0/2022,2000,g 11.0,4.0
# From MPC133426
282P/,e,5.8117,9.2976,217.6325,4.239680,0.1129027,0.18837393,21.4921,05/03.0/2022,2000,g 13.5,2.0
# From MPEC 2021-BE3
283P/Spacewatch,e,14.4552,161.1292,22.2369,4.137242,0.1171218,0.48464267,27.7606,05/03.0/2022,2000,g 16.0,2.0
# From MPEC 2022-D36
284P/McNaught,e,11.8613,144.2613,202.4113,3.676142,0.1398349,0.37553504,32.5006,05/03.0/2022,2000,g 13.0,4.0
# From MPC 85339
285P/LINEAR,e,25.0383,185.5075,178.4382,4.507673,0.1029854,0.61858013,333.8017,05/03.0/2022,2000,g 15.0,4.0
# From MPEC 2021-O56
286P/Christensen,e,17.0443,283.9562,24.8580,4.110335,0.1182737,0.42559357,358.8592,05/03.0/2022,2000,g 14.0,4.0
# From MPC 96868
287P/Christensen,e,16.3200,139.0421,189.0518,4.163364,0.1160212,0.27104704,310.3866,05/03.0/2022,2000,g 13.5,4.0
# From MPC133426
288P/,e,3.2380,83.1296,280.2532,3.049878,0.1850463,0.20096768,11.4950,05/03.0/2022,2000,g 16.0,2.0
# From MPEC 2021-S45
289P/Blanpain,e,5.8969,68.8827,9.8451,3.046083,0.1853922,0.68570274,160.1772,05/03.0/2022,2000,g 19.0,4.0
# From MPC 95214
290P/Jager,e,20.0682,302.6808,181.8847,6.214986,0.0636127,0.62762842,192.0165,05/03.0/2022,2000,g 10.5,4.0
# From MPEC 2021-N06
291P/NEAT,e,6.2984,237.8336,173.6030,4.538972,0.1019220,0.43562300,322.6057,05/03.0/2022,2000,g 13.0,4.0
# From MPC115887
292P/Li,e,24.2766,90.9499,319.4848,6.104341,0.0653500,0.58906866,196.8653,05/03.0/2022,2000,g 12.5,4.0
# From MPEC 2021-S45
293P/Spacewatch,e,9.0577,78.3997,40.9998,3.642249,0.1417913,0.41824596,70.8780,05/03.0/2022,2000,g 14.5,4.0
# From MPEC 2020-SI8
294P/LINEAR,e,18.0565,312.1453,235.4905,3.190573,0.1729422,0.60149060,152.5118,05/03.0/2022,2000,g 15.5,4.0
# From MPC 93589
295P/LINEAR,e,21.0741,7.4383,72.8735,5.305960,0.0806414,0.61660888,235.5744,05/03.0/2022,2000,g 12.0,4.0
# From MPEC 2021-N06
296P/Garradd,e,25.2343,263.5784,350.0413,3.493967,0.1509127,0.47873443,89.3905,05/03.0/2022,2000,g 14.0,4.0
# From MPC102956
297P/Beshore,e,10.3132,97.5711,132.9148,3.450939,0.1537440,0.32025819,71.3299,05/03.0/2022,2000,g 15.0,4.0
# From MPC114609
298P/Christensen,e,7.8708,52.8218,100.6562,3.590746,0.1448529,0.38636806,87.4704,05/03.0/2022,2000,g 15.0,4.0
# From MPEC 2022-CN4
299P/Catalina-PANSTARRS,e,10.4701,271.6177,323.8259,4.386850,0.1072692,0.28107560,281.7977,05/03.0/2022,2000,g 11.5,4.0
# From MPEC 2022-ED3
300P/Catalina,e,5.6740,95.6369,222.9278,2.699527,0.2222146,0.69175690,283.7620,05/03.0/2022,2000,g 16.0,4.0
# From MPC 89014
301P/LINEAR-NEAT,e,10.3397,351.1748,193.6293,5.739630,0.0716767,0.58520408,201.3118,05/03.0/2022,2000,g 13.0,4.0
# From MPEC 2020-HN5
302P/Lemmon-PANSTARRS,e,6.0337,121.7460,208.3692,4.274554,0.1115239,0.23030751,244.0268,05/03.0/2022,2000,g 12.5,4.0
# From MPC 92278
303P/NEAT,e,7.0216,347.9720,356.9364,5.045396,0.0869683,0.51090353,239.2991,05/03.0/2022,2000,g 13.5,4.0
# From MPEC 2020-N08
304P/Ory,e,2.6071,58.9160,335.2455,3.150670,0.1762380,0.60076389,110.7541,05/03.0/2022,2000,g 16.5,4.0
# From MPC101100
305P/Skiff,e,11.6604,240.1038,147.3312,4.642094,0.0985447,0.69375040,268.4343,05/03.0/2022,2000,g 18.0,4.0
# From MPC 92278
306P/LINEAR,e,8.3112,341.3733,0.8675,3.123757,0.1785205,0.59329484,148.3354,05/03.0/2022,2000,g 19.0,4.0
# From MPC 92278
307P/LINEAR,e,4.4355,158.1672,222.1345,5.790881,0.0707273,0.67528065,190.0799,05/03.0/2022,2000,g 15.0,4.0
# From MPEC 2022-C56
308P/Lagerkvist-Carsenty,e,4.8528,63.0563,333.6129,6.601225,0.0581122,0.36415983,148.2617,05/03.0/2022,2000,g 13.0,2.0
# From MPC 94284
309P/LINEAR,e,17.0237,10.1466,49.9377,4.372537,0.1077963,0.61797428,284.9460,05/03.0/2022,2000,g 15.0,4.0
# From MPC 98566
310P/Hill,e,13.1278,8.9218,31.7822,4.180143,0.1153234,0.42213070,297.8035,05/03.0/2022,2000,g 13.5,4.0
# From MPEC 2021-BE3
311P/PANSTARRS,e,4.9697,279.2145,144.5262,2.188399,0.3044489,0.11573201,174.3346,05/03.0/2022,2000,g 17.0,4.0
# From MPEC 2021-BE3
312P/NEAT,e,19.7677,144.6702,207.6071,3.468341,0.1525883,0.42786896,89.2407,05/03.0/2022,2000,g 16.0,4.0
# From MPEC 2021-S45
313P/Gibbs,e,10.9806,105.9689,254.7823,3.163573,0.1751609,0.23503580,130.8769,05/03.0/2022,2000,g 15.0,4.0
# From MPC105243
314P/Montani,e,3.9828,267.6071,214.0122,7.262724,0.0503564,0.41626550,102.4100,05/03.0/2022,2000,g  9.5,4.0
# From MPEC 2021-N06
315P/LONEOS,e,17.7415,68.8214,65.7303,4.940021,0.0897658,0.52095644,178.1005,05/03.0/2022,2000,g 11.0,4.0
# From MPC 92279
316P/LONEOS-Christensen,e,9.8267,246.4384,192.5322,4.373864,0.1077472,0.15601698,260.1831,05/03.0/2022,2000,g 13.5,4.0
# From MPEC 2020-C98
317P/WISE,e,11.9513,275.4916,334.8565,2.963010,0.1932433,0.57050219,112.8412,05/03.0/2022,2000,g 17.5,4.0
# From MPC102103
318P/McNaught-Hartley,e,17.8844,35.5340,313.2638,7.501501,0.0479713,0.67528969,114.2300,05/03.0/2022,2000,g  8.5,6.0
# From MPC 97499
319P/Catalina-McNaught,e,15.0947,111.3695,203.6776,3.567091,0.1462961,0.66668218,4.7646,05/03.0/2022,2000,g 15.0,4.0
# From MPC 96281
320P/McNaught,e,4.9080,295.9372,0.7823,3.093765,0.1811227,0.68553735,85.2938,05/03.0/2022,2000,g 20.5,4.0
# From MPC105243
321P/SOHO,e,20.0928,165.0172,172.7487,2.423432,0.2612509,0.98111147,0.0000,10/26.5153/2023,2000,g 20.0,4.0
# From MPC102103
322P/SOHO,e,11.4682,351.5304,56.8721,2.507861,0.2481698,0.97991284,0.0000,08/21.0842/2023,2000,g 19.0,4.0
# From MPEC 2016-Y36
323P/SOHO,e,5.3339,324.3859,353.0509,2.583068,0.2374107,0.98481778,0.0000,01/17.8010/2021,2000,g 20.0,4.0
# From MPEC 2021-W31
324P/LaSagra,e,21.4042,270.5851,57.5362,3.094546,0.1810543,0.15388611,65.6833,05/03.0/2022,2000,g 13.0,4.0
# From MPEC 2022-HC2
325P/Yang-Gao,e,16.6944,257.5596,343.7034,3.522740,0.1490676,0.59337876,5.1891,05/03.0/2022,2000,g 14.0,4.0
# From MPC103849
326P/Hill,e,2.4710,99.8089,278.6289,4.062713,0.1203593,0.31807992,286.9964,05/03.0/2022,2000,g 13.5,4.0
# From MPC 97499
327P/Van Ness,e,36.2512,173.9849,185.0455,3.562535,0.1465768,0.56322525,342.0543,05/03.0/2022,2000,g 16.0,4.0
# From MPC109148
328P/LONEOS-Tucker,e,17.6731,341.6349,30.5272,4.192707,0.1148054,0.55255783,266.2149,05/03.0/2022,2000,g 14.5,4.0
# From MPC101101
329P/LINEAR-Catalina,e,21.6886,87.6630,343.5304,5.189724,0.0833657,0.67771050,195.5537,05/03.0/2022,2000,g 13.5,4.0
# From MPC105243
330P/Catalina,e,15.7004,293.0888,188.8955,6.625047,0.0577990,0.54845245,120.0199,05/03.0/2022,2000,g 12.0,4.0
# From MPEC 2022-C56
331P/Gibbs,e,9.7381,216.7590,184.2802,3.005165,0.1891915,0.04115453,109.3120,05/03.0/2022,2000,g 12.0,4.0
# From MPEC 2016-K18
332P/Ikeya-Murakami,e,9.3800,3.7862,152.3246,3.088549,0.1815818,0.48938374,46.7783,05/03.0/2022,2000,g 18.0,4.0
# From MPEC 2016-EI8
332P-B/Ikeya-Murakami,e,9.3805,3.8028,152.3711,3.082329,0.1821317,0.48970701,359.9699,03/17.0/2016,2000,g 19.0,4.0
# From MPEC 2016-K18
332P-C/Ikeya-Murakami,e,9.3791,3.7866,152.3159,3.088514,0.1815848,0.48938921,46.7933,05/03.0/2022,2000,g 16.5,4.0
# From MPEC 2016-ED0
332P-D/Ikeya-Murakami,e,9.3761,3.7923,152.4393,3.081138,0.1822373,0.48977814,359.9486,03/17.0/2016,2000,g 19.0,4.0
# From MPEC 2016-ED0
332P-E/Ikeya-Murakami,e,9.3774,3.8228,152.2825,3.079877,0.1823493,0.48922008,359.9889,03/17.0/2016,2000,g 21.0,4.0
# From MPEC 2016-ED0
332P-F/Ikeya-Murakami,e,9.5293,3.4757,152.8203,3.163214,0.1751908,0.49918860,359.8501,03/17.0/2016,2000,g 21.0,4.0
# From MPEC 2016-ED0
332P-G/Ikeya-Murakami,e,9.2523,3.6955,154.4000,3.050519,0.1849880,0.49200362,359.9006,03/19.0/2016,2000,g 19.0,4.0
# From MPC100285
332P-H/Ikeya-Murakami,e,9.3796,3.7864,152.3165,3.088699,0.1815686,0.48942444,46.7240,05/03.0/2022,2000,g 19.0,4.0
# From MPEC 2016-ED0
332P-I/Ikeya-Murakami,e,9.3791,3.8048,152.3297,3.081767,0.1821815,0.48955490,359.9360,03/17.0/2016,2000,g 20.5,2.0
# From MPEC 2016-EI8
332P-J/Ikeya-Murakami,e,9.4296,3.6729,152.7712,3.115165,0.1792596,0.49429435,359.8613,03/17.0/2016,2000,g 20.5,2.0
# From MPEC 2020-L06
333P/LINEAR,e,131.9926,115.6393,25.9875,4.220451,0.1136752,0.73662038,253.0169,05/03.0/2022,2000,g 15.0,4.0
# From MPC115888
334P/NEAT,e,20.4081,90.6232,90.1186,6.838208,0.0551176,0.35072534,98.8304,05/03.0/2022,2000,g 10.5,4.0
# From MPEC 2021-U31
335P/Gibbs,e,7.2934,330.8467,162.3117,3.577273,0.1456720,0.54606921,345.2847,05/03.0/2022,2000,g 17.0,4.0
# From MPC105244
336P/McNaught,e,17.8306,298.2502,308.7416,5.034649,0.0872470,0.44438277,167.2616,05/03.0/2022,2000,g 13.5,4.0
# From MPEC 2022-HC2
337P/WISE,e,15.3711,106.0612,161.0300,3.285819,0.1654774,0.49660335,350.2112,05/03.0/2022,2000,g 17.0,4.0
# From MPC104796
